00148    7.65  0.15 K221L 217.82485  252.65788  145.00265   25.29429  0.1878606  0.21379678   2.7699288  0 MPO656900  3839  75 1879-2021 0.60 M-v 3Ek Pan        0000    (148) Gallia             20210923
00173    7.94  0.15 K221L 251.08871  228.84307  148.17187   14.19978  0.2095892  0.21714946   2.7413440  0 MPO647010  3486  76 1879-2021 0.43 M-v 3Ek Pan        0000    (173) Ino                20210816
00187    8.26  0.15 K221L 295.26511  196.74565   21.67608   10.58185  0.2407512  0.21865514   2.7287448  0 MPO656900  3474  57 1880-2021 0.53 M-v 3Ek Pan        0000    (187) Lamberta           20211016
00192    7.36  0.15 K221L 262.75818   30.68543  343.10042    6.79953  0.2458117  0.26471353   2.4022523  0 MPO647010  2948  69 1879-2021 0.55 M-v 3Ek Pan        0000    (192) Nausikaa           20210904
00196    6.57  0.15 K221L 268.37970  202.45422   72.30618    7.26101  0.0153501  0.17927515   3.1149852  0 MPO636063  2999  82 1879-2021 0.55 M-v 3Ek Pan        0000    (196) Philomela          20210621
00198    8.49  0.15 K221L 281.64914   89.21575  268.24297    9.32180  0.2276589  0.25574168   2.4581122  0 MPO647010  3159  58 1885-2021 0.42 M-v 3Ek Pan        0000    (198) Ampella            20210904
00230    7.38  0.15 K221L 291.75846  139.69117  239.83386    9.44978  0.0621283  0.26806177   2.3822068  0 MPO656901  2693  73 1882-2021 0.71 M-v 3Ek Pan        0000    (230) Athamantis         20211014
00324    7.05  0.15 K221L 314.54674   44.20587  327.85962   11.10474  0.3414290  0.22457743   2.6805586  0 MPO647012  3547  74 1892-2021 0.52 M-v 3Ek Pan        0000    (324) Bamberga           20210904
00346    7.36  0.15 K221L 250.51215  291.90910   91.93182    8.75288  0.1027445  0.21098233   2.7945078  0 MPO656902  2704  62 1892-2021 0.65 M-v 3Ek Pan        0000    (346) Hermentaria        20210923
00354    6.35  0.15 K221L 183.83064    6.38774  140.34764   18.39581  0.1120638  0.20998100   2.8033848  0 MPO656902  2827  84 1893-2021 0.75 M-v 3Ek Pan        0000    (354) Eleonora           20211017
00433   10.31  0.15 K221L 246.90412  178.89719  304.29634   10.82847  0.2227273  0.55968772   1.4582731  0 E2021-Y76 11512  53 1893-2021 0.56 M-v 3Ek Veres      1804    (433) Eros               20211202
00584    8.57  0.15 K221L 345.27471   85.28505  282.02770   10.72084  0.2339885  0.26946771   2.3739135  0 MPO656905  2681  56 1906-2021 0.55 M-v 3Ek Pan        0000    (584) Semiramis          20211018
00674    7.50  0.15 K221L 182.64712   41.65133   58.12783   13.50977  0.1950312  0.19742433   2.9210272  0 MPO656907  2428  64 1901-2021 0.67 M-v 3Ek Pan        0000    (674) Rachele            20211004
01036    9.23  0.15 K221L 140.65484  132.42811  215.51720   26.67791  0.5331216  0.22643871   2.6658494  0 E2021-Y76  7066  60 1924-2021 0.53 M-v 3Ek Veres      1804   (1036) Ganymed            20211215
00511    6.43  0.15 K221L 149.38212  337.15927  107.58521   15.93991  0.1884248  0.17525139   3.1624845  0 MPO647014  3405  85 1903-2021 0.53 M-v 3Ek Pan        0000    (511) Davida             20210830
00041    7.44  0.15 K221L 349.10563   45.92128  178.05504   15.78966  0.2745927  0.21479424   2.7613469  0 MPO636060  3203  65 1866-2021 0.63 M-v 3Ek Pan        0000     (41) Daphne             20210610
00068    7.00  0.15 K221L 113.80761  304.61231   44.06851    7.96059  0.1849846  0.21229254   2.7829980  0 MPO656898  2856  87 1861-2021 0.67 M-v 3Ek Pan        0000     (68) Leto               20211015
00349    5.90  0.15 K221L 342.95779  344.47528   32.19964    8.24726  0.0905078  0.19689074   2.9263023  0 MPO656902  2735  82 1892-2021 0.73 M-v 3Ek Pan        0000    (349) Dembowska          20211019
00351    9.05  0.15 K221L 347.98875   31.80980   99.19976    9.20633  0.1557556  0.21433240   2.7653122  0 MPO656902  3197  52 1893-2021 0.51 M-v 3Ek Pan        0000    (351) Yrsa               20211018
00471    6.67  0.15 K221L  86.06789  315.63476   83.80093   15.01375  0.2287249  0.20056513   2.8904520  0 MPO656904  3085  73 1901-2021 0.64 M-v 3Ek Pan        0000    (471) Papagena           20211014
00521    8.51  0.15 K221L  23.05347  316.03231   89.60970   10.58301  0.2783418  0.21695080   2.7430173  0 MPO656905  2895  62 1904-2021 0.56 M-v 3Ek Pan        0000    (521) Brixia             20211010
00554    9.12  0.15 K221L  33.90435  127.69257  295.38982    2.93494  0.1518899  0.26926856   2.3750839  0 MPO656905  3246  63 1900-2021 0.61 M-v 3Ek Pan        0000    (554) Peraga             20211018
00762    8.05  0.15 K221L 341.40524  188.78162  305.54597   13.09964  0.1066653  0.17596206   3.1539637  0 MPO656908  3864  49 1916-2021 0.52 M-v 3Ek Pan        0000    (762) Pulcova            20211018
00925    8.42  0.15 K221L 335.04261  201.76523  299.53139   21.09992  0.0808114  0.22213958   2.7001346  0 MPO656910  4361  50 1902-2021 0.46 M-v 3Ek Pan        0000    (925) Alphonsina         20211018
00031    6.86  0.15 K221L 262.85749   61.55882   30.87180   26.27555  0.2179027  0.17511607   3.1641135  0 MPO656898  2603  63 1860-2021 0.65 M-v 3Ek Pan        0000     (31) Euphrosyne         20211018
00042    7.58  0.15 K221L 101.85386  237.17663   84.18695    8.51225  0.2227244  0.25829158   2.4419076  0 MPO656898  2996  77 1856-2021 0.66 M-v 3Ek Pan        0000     (42) Isis               20211006
D4340   -0.45  0.15 K221L  45.68926  115.19411  110.30102   17.11115  0.2498235  0.00393471  39.7368943  0 MPO647966  9906  96 1914-2021 0.29 M-v 3Ek Pan        000A (134340) Pluto              20210818
D6108    0.26  0.15 K221L 218.88618  239.71340  122.12606   28.21247  0.1989365  0.00349650  42.9912511  2 MPO647973  3192  19 1955-2021 0.35 M-v 3Ek Pan        000A (136108) Haumea             20210904
D6472   -0.12  0.15 K221L 167.00792  295.20443   79.47666   29.00208  0.1653925  0.00323482  45.2795717  2 MPO647974  3185  19 1955-2021 0.33 M-v 3Ek Pan        000A (136472) Makemake           20210815
